ONEWEB-0207             
1 48242U 21031AJ  24297.61934870  .00000250  00000+0  64076-3 0  9991
2 48242  87.9017  49.3082 0001499 103.3769 256.7528 13.14500887169268
ONEWEB-0208             
1 48243U 21031AK  24297.60110498  .00000289  00000+0  74436-3 0  9996
2 48243  87.9019  49.3268 0001703  95.6827 264.4497 13.14505788169270
ONEWEB-0200             
1 48244U 21031AL  24297.56463994 -.00000126  00000+0 -37434-3 0  9993
2 48244  87.9016  49.3287 0001705  92.5658 267.5667 13.14502432169196
ONEWEB-0217             
1 48245U 21031AM  24297.58049490 -.00000177  00000+0 -51150-3 0  9994
2 48245  87.9015  49.3102 0001760  89.1108 271.0224 13.14501572169143
ONEWEB-0211             
1 48767U 21045A   24297.48156322 -.00000055  00000+0 -18062-3 0  9990
2 48767  87.9125  18.9379 0001989  98.6467 261.4889 13.15547104165304
ONEWEB-0223             
1 48768U 21045B   24297.50375450 -.00000044  00000+0 -15176-3 0  9990
2 48768  87.9126  18.9446 0002356  96.4094 263.7305 13.15550285165292
ONEWEB-0230             
1 48769U 21045C   24297.47522027  .00000060  00000+0  12631-3 0  9990
2 48769  87.9125  19.0194 0001876 103.8658 256.2681 13.15548257165558
ONEWEB-0237             
1 48770U 21045D   24297.61624851  .00000060  00000+0  12483-3 0  9991
2 48770  87.9133  18.9304 0002230  97.7250 262.4133 13.15547689165294
